{
  "type": "FeatureCollection",
  "features": [
    {
      "type": "Feature",
      "properties": {
        "norad_id": 37695,
        "name": "FENGYUN 1C DEB",
        "group": "fengyun-1c-debris",
        "lat": -47.32110714747236,
        "lon": -158.77703682252502,
        "alt_km": 729.5402238039269,
        "timestamp": "2025-12-12T22:42:12.835242+00:00",
        "meta_object_name": "FENGYUN 1C DEB",
        "meta_object_id": "1999-025ELL",
        "meta_epoch": "2025-12-05T21:35:58.305696",
        "meta_mean_motion": 13.64964142,
        "meta_eccentricity": 0.04651514,
        "meta_inclination": 98.2113,
        "meta_ra_of_asc_node": 24.2422,
        "meta_arg_of_pericenter": 279.1549,
        "meta_mean_anomaly": 266.6228,
        "meta_ephemeris_type": 0,
        "meta_classification_type": "U",
        "meta_norad_cat_id": 37695,
        "meta_element_set_no": 999,
        "meta_rev_at_epoch": 89158,
        "meta_bstar": 0.001955193,
        "meta_mean_motion_dot": 3.282e-05,
        "meta_mean_motion_ddot": 0,
        "tle_line1": "1 37695U 99025ELL 25339.89998039  .00003282  00000+0  19552-2 0  9990",
        "tle_line2": "2 37695  98.2113  24.2422 0465151 279.1549 266.6228 13.64964142891584"
      },
      "geometry": {
        "type": "Point",
        "coordinates": [
          -158.77703682252502,
          -47.32110714747236
        ]
      }
    },
    {
      "type": "Feature",
      "properties": {
        "norad_id": 37704,
        "name": "FENGYUN 1C DEB",
        "group": "fengyun-1c-debris",
        "lat": -23.09643552156612,
        "lon": -3.5147962469862444,
        "alt_km": 841.5976314622403,
        "timestamp": "2025-12-12T22:42:12.835252+00:00",
        "meta_object_name": "FENGYUN 1C DEB",
        "meta_object_id": "1999-025ELV",
        "meta_epoch": "2025-12-10T18:58:47.253216",
        "meta_mean_motion": 13.70500661,
        "meta_eccentricity": 0.02401356,
        "meta_inclination": 98.3199,
        "meta_ra_of_asc_node": 178.1952,
        "meta_arg_of_pericenter": 184.1814,
        "meta_mean_anomaly": 190.5574,
        "meta_ephemeris_type": 0,
        "meta_classification_type": "U",
        "meta_norad_cat_id": 37704,
        "meta_element_set_no": 999,
        "meta_rev_at_epoch": 62338,
        "meta_bstar": 0.0019314833,
        "meta_mean_motion_dot": 2.062e-05,
        "meta_mean_motion_ddot": 0,
        "tle_line1": "1 37704U 99025ELV 25344.79082469  .00002062  00000+0  19315-2 0  9999",
        "tle_line2": "2 37704  98.3199 178.1952 0240135 184.1814 190.5574 13.70500661623389"
      },
      "geometry": {
        "type": "Point",
        "coordinates": [
          -3.5147962469862444,
          -23.09643552156612
        ]
      }
    },
    {
      "type": "Feature",
      "properties": {
        "norad_id": 37707,
        "name": "FENGYUN 1C DEB",
        "group": "fengyun-1c-debris",
        "lat": 7.418574472604679,
        "lon": -10.362752729686648,
        "alt_km": 609.44862506543,
        "timestamp": "2025-12-12T22:42:12.835262+00:00",
        "meta_object_name": "FENGYUN 1C DEB",
        "meta_object_id": "1999-025ELY",
        "meta_epoch": "2025-12-10T18:43:33.805632",
        "meta_mean_motion": 14.56419788,
        "meta_eccentricity": 0.01436989,
        "meta_inclination": 100.2215,
        "meta_ra_of_asc_node": 348.3329,
        "meta_arg_of_pericenter": 31.5927,
        "meta_mean_anomaly": 147.6034,
        "meta_ephemeris_type": 0,
        "meta_classification_type": "U",
        "meta_norad_cat_id": 37707,
        "meta_element_set_no": 999,
        "meta_rev_at_epoch": 85537,
        "meta_bstar": 0.0011022748,
        "meta_mean_motion_dot": 5.562e-05,
        "meta_mean_motion_ddot": 0,
        "tle_line1": "1 37707U 99025ELY 25344.78025238  .00005562  00000+0  11023-2 0  9998",
        "tle_line2": "2 37707 100.2215 348.3329 0143698  31.5927 147.6034 14.56419788855373"
      },
      "geometry": {
        "type": "Point",
        "coordinates": [
          -10.362752729686648,
          7.418574472604679
        ]
      }
    },
    {
      "type": "Feature",
      "properties": {
        "norad_id": 37712,
        "name": "FENGYUN 1C DEB",
        "group": "fengyun-1c-debris",
        "lat": -21.825173635029465,
        "lon": -57.59837106134577,
        "alt_km": 825.0685535519115,
        "timestamp": "2025-12-12T22:42:12.835272+00:00",
        "meta_object_name": "FENGYUN 1C DEB",
        "meta_object_id": "1999-025EMD",
        "meta_epoch": "2025-12-12T04:12:01.730592",
        "meta_mean_motion": 14.36426819,
        "meta_eccentricity": 0.00792421,
        "meta_inclination": 98.8182,
        "meta_ra_of_asc_node": 125.1769,
        "meta_arg_of_pericenter": 355.2858,
        "meta_mean_anomaly": 182.6641,
        "meta_ephemeris_type": 0,
        "meta_classification_type": "U",
        "meta_norad_cat_id": 37712,
        "meta_element_set_no": 999,
        "meta_rev_at_epoch": 63952,
        "meta_bstar": 0.0006076205,
        "meta_mean_motion_dot": 1.799e-05,
        "meta_mean_motion_ddot": 0,
        "tle_line1": "1 37712U 99025EMD 25346.17502003  .00001799  00000+0  60762-3 0  9992",
        "tle_line2": "2 37712  98.8182 125.1769 0079242 355.2858 182.6641 14.36426819639526"
      },
      "geometry": {
        "type": "Point",
        "coordinates": [
          -57.59837106134577,
          -21.825173635029465
        ]
      }
    },
    {
      "type": "Feature",
      "properties": {
        "norad_id": 37714,
        "name": "FENGYUN 1C DEB",
        "group": "fengyun-1c-debris",
        "lat": 79.06823957588843,
        "lon": -27.191650887737527,
        "alt_km": 742.9028843332908,
        "timestamp": "2025-12-12T22:42:12.835282+00:00",
        "meta_object_name": "FENGYUN 1C DEB",
        "meta_object_id": "1999-025EMF",
        "meta_epoch": "2025-12-09T13:46:38.631072",
        "meta_mean_motion": 14.32176518,
        "meta_eccentricity": 0.0048599,
        "meta_inclination": 98.8929,
        "meta_ra_of_asc_node": 95.1946,
        "meta_arg_of_pericenter": 93.8012,
        "meta_mean_anomaly": 266.8729,
        "meta_ephemeris_type": 0,
        "meta_classification_type": "U",
        "meta_norad_cat_id": 37714,
        "meta_element_set_no": 999,
        "meta_rev_at_epoch": 57464,
        "meta_bstar": 0.0030577,
        "meta_mean_motion_dot": 8.305e-05,
        "meta_mean_motion_ddot": 0,
        "tle_line1": "1 37714U 99025EMF 25343.57405823  .00008305  00000+0  30577-2 0  9997",
        "tle_line2": "2 37714  98.8929  95.1946 0048599  93.8012 266.8729 14.32176518574645"
      },
      "geometry": {
        "type": "Point",
        "coordinates": [
          -27.191650887737527,
          79.06823957588843
        ]
      }
    },
    {
      "type": "Feature",
      "properties": {
        "norad_id": 37715,
        "name": "FENGYUN 1C DEB",
        "group": "fengyun-1c-debris",
        "lat": -52.65788757411861,
        "lon": 162.77553395904084,
        "alt_km": 960.2711064552732,
        "timestamp": "2025-12-12T22:42:12.835292+00:00",
        "meta_object_name": "FENGYUN 1C DEB",
        "meta_object_id": "1999-025EMG",
        "meta_epoch": "2025-12-08T07:32:41.570592",
        "meta_mean_motion": 13.95403358,
        "meta_eccentricity": 0.01145342,
        "meta_inclination": 98.9562,
        "meta_ra_of_asc_node": 350.2044,
        "meta_arg_of_pericenter": 124.1518,
        "meta_mean_anomaly": 254.1782,
        "meta_ephemeris_type": 0,
        "meta_classification_type": "U",
        "meta_norad_cat_id": 37715,
        "meta_element_set_no": 999,
        "meta_rev_at_epoch": 57742,
        "meta_bstar": 0.0010104518,
        "meta_mean_motion_dot": 1.405e-05,
        "meta_mean_motion_ddot": 0,
        "tle_line1": "1 37715U 99025EMG 25342.31437003  .00001405  00000+0  10105-2 0  9993",
        "tle_line2": "2 37715  98.9562 350.2044 0114534 124.1518 254.1782 13.95403358577427"
      },
      "geometry": {
        "type": "Point",
        "coordinates": [
          162.77553395904084,
          -52.65788757411861
        ]
      }
    },
    {
      "type": "Feature",
      "properties": {
        "norad_id": 37717,
        "name": "FENGYUN 1C DEB",
        "group": "fengyun-1c-debris",
        "lat": -4.179810921849691,
        "lon": -56.630355330843514,
        "alt_km": 600.4474536913649,
        "timestamp": "2025-12-12T22:42:12.835303+00:00",
        "meta_object_name": "FENGYUN 1C DEB",
        "meta_object_id": "1999-025EMJ",
        "meta_epoch": "2025-11-28T15:20:52.761120",
        "meta_mean_motion": 14.92855591,
        "meta_eccentricity": 0.00577735,
        "meta_inclination": 98.7244,
        "meta_ra_of_asc_node": 286.8705,
        "meta_arg_of_pericenter": 147.0493,
        "meta_mean_anomaly": 30.278,
        "meta_ephemeris_type": 0,
        "meta_classification_type": "U",
        "meta_norad_cat_id": 37717,
        "meta_element_set_no": 999,
        "meta_rev_at_epoch": 89187,
        "meta_bstar": 0.0023279704,
        "meta_mean_motion_dot": 0.00024912,
        "meta_mean_motion_ddot": 0,
        "tle_line1": "1 37717U 99025EMJ 25332.63949955  .00024912  00000+0  23280-2 0  9999",
        "tle_line2": "2 37717  98.7244 286.8705 0057773 147.0493  30.2780 14.92855591891876"
      },
      "geometry": {
        "type": "Point",
        "coordinates": [
          -56.630355330843514,
          -4.179810921849691
        ]
      }
    }
  ]
}